OBJECT_NAME,OBJECT_ID,EPOCH,MEAN_MOTION,ECCENTRICITY,INCLINATION,RA_OF_ASC_NODE,ARG_OF_PERICENTER,MEAN_ANOMALY,EPHEMERIS_TYPE,CLASSIFICATION_TYPE,NORAD_CAT_ID,ELEMENT_SET_NO,REV_AT_EPOCH,BSTAR,MEAN_MOTION_DOT,MEAN_MOTION_DDOT
ONEWEB-0497,2022-138D,2026-06-15T09:45:29.705184,13.19724723,.0001777,87.9175,305.3173,99.9370,260.1964,0,U,54116,999,17657,.20814E-3,.96E-6,0
ONEWEB-0499,2022-138E,2026-06-15T09:21:36.768096,13.19727306,.0001603,87.9167,305.3300,96.3787,263.7529,0,U,54117,999,17658,.11163E-3,.58E-6,0
ONEWEB-0500,2022-138F,2026-06-15T09:25:01.117056,13.19724631,.0001912,87.9177,305.3235,100.4194,259.7154,0,U,54118,999,17659,.12372E-3,.62E-6,0
ONEWEB-0501,2022-138G,2026-06-15T10:08:13.893792,13.19723868,.0001429,87.9177,305.3173,101.7763,258.3530,0,U,54119,999,17657,.14945E-3,.73E-6,0
ONEWEB-0502,2022-138H,2026-06-15T09:47:45.405024,13.19724471,.0001622,87.9176,305.3090,95.1146,265.0172,0,U,54120,999,17659,.16973E-3,.81E-6,0
ONEWEB-0503,2022-138J,2026-06-15T09:31:50.799072,13.19724918,.0001913,87.9180,305.3168,90.2916,269.8436,0,U,54121,999,17658,.15524E-3,.75E-6,0
ONEWEB-0504,2022-138K,2026-06-15T09:13:39.319104,13.19725552,.0001647,87.9176,305.3244,94.5040,265.6281,0,U,54122,999,17659,.98542E-4,.52E-6,0
ONEWEB-0505,2022-138L,2026-06-15T10:58:17.150016,13.19726227,.0001394,87.9174,305.3111,97.7400,262.3891,0,U,54123,999,17658,.11459E-3,.59E-6,0
ONEWEB-0506,2022-138M,2026-06-15T10:21:52.385184,13.19723435,.0001525,87.9179,305.3131,99.7770,260.3535,0,U,54124,999,17657,.56098E-4,.35E-6,0
ONEWEB-0507,2022-138N,2026-06-15T09:02:16.969056,13.19725289,.000166,87.9166,305.3365,100.9798,259.1521,0,U,54125,999,17661,.42266E-4,.3E-6,0
ONEWEB-0508,2022-138P,2026-06-15T08:57:43.194240,13.19724566,.0001499,87.9168,305.3365,107.7155,252.4142,0,U,54126,999,17659,.60003E-4,.37E-6,0
ONEWEB-0509,2022-138Q,2026-06-15T10:10:30.283104,13.19719700,.0001687,87.9179,305.3158,99.7021,260.4302,0,U,54127,999,17657,.13672E-3,.68E-6,0
ONEWEB-0510,2022-138R,2026-06-15T12:59:13.493760,13.20772829,.0002412,87.9194,274.7637,95.9980,264.1428,0,U,54128,999,17906,.55002E-4,.35E-6,0
ONEWEB-0511,2022-138S,2026-06-15T10:05:58.172352,13.19726477,.000177,87.9175,305.3193,89.1381,270.9954,0,U,54129,999,17660,-.5611E-4,-.1E-6,0
ONEWEB-0512,2022-138T,2026-06-15T09:54:35.182944,13.19724976,.0001527,87.9167,305.3260,94.3960,265.7347,0,U,54130,999,17657,.15116E-3,.73E-6,0
ONEWEB-0513,2022-138U,2026-06-15T10:03:43.479072,13.20269059,.0001198,87.9174,305.2690,72.7698,287.3566,0,U,54131,999,17648,.19615E-3,.92E-6,0
ONEWEB-0514,2022-138V,2026-06-15T10:17:19.958208,13.19724722,.0001971,87.9180,305.3165,96.9320,263.2036,0,U,54132,999,17659,.35755E-4,.27E-6,0
ONEWEB-0515,2022-138W,2026-06-15T12:39:49.256352,13.20770702,.0002695,87.9199,274.7609,111.8343,248.3077,0,U,54133,999,17908,-.45425E-4,-.5E-7,0
ONEWEB-0516,2022-138X,2026-06-15T09:40:55.976160,13.19725367,.0001788,87.9166,305.3279,102.7962,257.3371,0,U,54134,999,17659,.22032E-3,.101E-5,0
ONEWEB-0517,2022-138Y,2026-06-15T09:11:22.172064,13.19724923,.0001927,87.9175,305.3242,88.9658,271.1695,0,U,54135,999,17659,.12646E-3,.64E-6,0
ONEWEB-0518,2022-138Z,2026-06-15T09:38:41.395200,13.19727989,.0001819,87.9168,305.3301,104.6625,255.4709,0,U,54136,999,17659,.20986E-3,.97E-6,0
ONEWEB-0519,2022-138AA,2026-06-15T10:15:04.285152,13.19725954,.0001914,87.9178,305.3163,92.5425,267.5927,0,U,54137,999,17660,-.14731E-5,.12E-6,0
ONEWEB-0520,2022-138AB,2026-06-15T11:05:06.313632,13.19724908,.0001584,87.9176,305.3094,100.9817,259.1494,0,U,54138,999,17659,.45538E-4,.31E-6,0
ONEWEB-0521,2022-138AC,2026-06-15T10:03:41.154912,13.19725473,.000197,87.9178,305.3066,92.4525,267.6834,0,U,54139,999,17653,.20275E-3,.94E-6,0
ONEWEB-0522,2022-138AD,2026-06-15T09:34:07.324032,13.19724994,.0001708,87.9179,305.3130,98.2392,261.8934,0,U,54140,999,17657,.18504E-3,.87E-6,0
ONEWEB-0523,2022-138AE,2026-06-15T08:42:14.813280,13.20771320,.0002775,87.9197,274.8039,99.4560,260.6887,0,U,54141,999,17906,-.29287E-4,.1E-7,0
ONEWEB-0524,2022-138AF,2026-06-15T08:27:42.429888,13.20770925,.000257,87.9195,274.8029,117.3231,242.8164,0,U,54142,999,17906,.91435E-4,.5E-6,0
ONEWEB-0525,2022-138AG,2026-06-15T10:01:24.337056,13.19725709,.0001545,87.9176,305.3170,106.0162,254.1141,0,U,54143,999,17659,.15614E-3,.75E-6,0
ONEWEB-0526,2022-138AH,2026-06-15T10:49:10.352928,13.19725866,.0001767,87.9176,305.3109,102.4956,257.6374,0,U,54144,999,17657,-.60483E-4,-.11E-6,0
ONEWEB-0529,2022-138AJ,2026-06-15T09:04:32.693088,13.19724869,.0001631,87.9167,305.3346,102.0125,258.1191,0,U,54145,999,17658,.14355E-3,.7E-6,0
ONEWEB-0531,2022-138AK,2026-06-15T08:08:19.552416,13.20771614,.000282,87.9192,274.8035,105.2350,254.9095,0,U,54146,999,17906,.12463E-3,.64E-6,0
