[
  {
    "name": "ONEWEB-0497",
    "noradId": "54116",
    "line1": "1 54116U 22138D   26166.40659381  .00000096  00000+0  20814-3 0  9992",
    "line2": "2 54116  87.9175 305.3173 0001777  99.9370 260.1964 13.19724723176570"
  },
  {
    "name": "ONEWEB-0499",
    "noradId": "54117",
    "line1": "1 54117U 22138E   26166.39000889  .00000058  00000+0  11163-3 0  9999",
    "line2": "2 54117  87.9167 305.3300 0001603  96.3787 263.7529 13.19727306176582"
  },
  {
    "name": "ONEWEB-0500",
    "noradId": "54118",
    "line1": "1 54118U 22138F   26166.39237404  .00000062  00000+0  12372-3 0  9993",
    "line2": "2 54118  87.9177 305.3235 0001912 100.4194 259.7154 13.19724631176591"
  },
  {
    "name": "ONEWEB-0501",
    "noradId": "54119",
    "line1": "1 54119U 22138G   26166.42238303  .00000073  00000+0  14945-3 0  9997",
    "line2": "2 54119  87.9177 305.3173 0001429 101.7763 258.3530 13.19723868176574"
  },
  {
    "name": "ONEWEB-0502",
    "noradId": "54120",
    "line1": "1 54120U 22138H   26166.40816441  .00000081  00000+0  16973-3 0  9994",
    "line2": "2 54120  87.9176 305.3090 0001622  95.1146 265.0172 13.19724471176599"
  },
  {
    "name": "ONEWEB-0503",
    "noradId": "54121",
    "line1": "1 54121U 22138J   26166.39711573  .00000075  00000+0  15524-3 0  9997",
    "line2": "2 54121  87.9180 305.3168 0001913  90.2916 269.8436 13.19724918176585"
  },
  {
    "name": "ONEWEB-0504",
    "noradId": "54122",
    "line1": "1 54122U 22138K   26166.38448286  .00000052  00000+0  98542-4 0  9992",
    "line2": "2 54122  87.9176 305.3244 0001647  94.5040 265.6281 13.19725552176593"
  },
  {
    "name": "ONEWEB-0505",
    "noradId": "54123",
    "line1": "1 54123U 22138L   26166.45714294  .00000059  00000+0  11459-3 0  9994",
    "line2": "2 54123  87.9174 305.3111 0001394  97.7400 262.3891 13.19726227176589"
  },
  {
    "name": "ONEWEB-0506",
    "noradId": "54124",
    "line1": "1 54124U 22138M   26166.43185631  .00000035  00000+0  56098-4 0  9993",
    "line2": "2 54124  87.9179 305.3131 0001525  99.7770 260.3535 13.19723435176575"
  },
  {
    "name": "ONEWEB-0507",
    "noradId": "54125",
    "line1": "1 54125U 22138N   26166.37658529  .00000030  00000+0  42266-4 0  9995",
    "line2": "2 54125  87.9166 305.3365 0001660 100.9798 259.1521 13.19725289176611"
  },
  {
    "name": "ONEWEB-0508",
    "noradId": "54126",
    "line1": "1 54126U 22138P   26166.37341660  .00000037  00000+0  60003-4 0  9997",
    "line2": "2 54126  87.9168 305.3365 0001499 107.7155 252.4142 13.19724566176595"
  },
  {
    "name": "ONEWEB-0509",
    "noradId": "54127",
    "line1": "1 54127U 22138Q   26166.42396161  .00000068  00000+0  13672-3 0  9993",
    "line2": "2 54127  87.9179 305.3158 0001687  99.7021 260.4302 13.19719700176578"
  },
  {
    "name": "ONEWEB-0510",
    "noradId": "54128",
    "line1": "1 54128U 22138R   26166.54112840  .00000035  00000+0  55002-4 0  9995",
    "line2": "2 54128  87.9194 274.7637 0002412  95.9980 264.1428 13.20772829179066"
  },
  {
    "name": "ONEWEB-0511",
    "noradId": "54129",
    "line1": "1 54129U 22138S   26166.42081218 -.00000010  00000+0 -56110-4 0  9993",
    "line2": "2 54129  87.9175 305.3193 0001770  89.1381 270.9954 13.19726477176602"
  },
  {
    "name": "ONEWEB-0512",
    "noradId": "54130",
    "line1": "1 54130U 22138T   26166.41290721  .00000073  00000+0  15116-3 0  9992",
    "line2": "2 54130  87.9167 305.3260 0001527  94.3960 265.7347 13.19724976176577"
  },
  {
    "name": "ONEWEB-0513",
    "noradId": "54131",
    "line1": "1 54131U 22138U   26166.41925323  .00000092  00000+0  19615-3 0  9995",
    "line2": "2 54131  87.9174 305.2690 0001198  72.7698 287.3566 13.20269059176485"
  },
  {
    "name": "ONEWEB-0514",
    "noradId": "54132",
    "line1": "1 54132U 22138V   26166.42870322  .00000027  00000+0  35755-4 0  9997",
    "line2": "2 54132  87.9180 305.3165 0001971  96.9320 263.2036 13.19724722176598"
  },
  {
    "name": "ONEWEB-0515",
    "noradId": "54133",
    "line1": "1 54133U 22138W   26166.52765343 -.00000005  00000+0 -45425-4 0  9998",
    "line2": "2 54133  87.9199 274.7609 0002695 111.8343 248.3077 13.20770702179084"
  },
  {
    "name": "ONEWEB-0516",
    "noradId": "54134",
    "line1": "1 54134U 22138X   26166.40342565  .00000101  00000+0  22032-3 0  9996",
    "line2": "2 54134  87.9166 305.3279 0001788 102.7962 257.3371 13.19725367176596"
  },
  {
    "name": "ONEWEB-0517",
    "noradId": "54135",
    "line1": "1 54135U 22138Y   26166.38289551  .00000064  00000+0  12646-3 0  9997",
    "line2": "2 54135  87.9175 305.3242 0001927  88.9658 271.1695 13.19724923176599"
  },
  {
    "name": "ONEWEB-0518",
    "noradId": "54136",
    "line1": "1 54136U 22138Z   26166.40186800  .00000097  00000+0  20986-3 0  9996",
    "line2": "2 54136  87.9168 305.3301 0001819 104.6625 255.4709 13.19727989176594"
  },
  {
    "name": "ONEWEB-0519",
    "noradId": "54137",
    "line1": "1 54137U 22138AA  26166.42713293  .00000012  00000+0 -14731-5 0  9992",
    "line2": "2 54137  87.9178 305.3163 0001914  92.5425 267.5927 13.19725954176609"
  },
  {
    "name": "ONEWEB-0520",
    "noradId": "54138",
    "line1": "1 54138U 22138AB  26166.46187863  .00000031  00000+0  45538-4 0  9993",
    "line2": "2 54138  87.9176 305.3094 0001584 100.9817 259.1494 13.19724908176595"
  },
  {
    "name": "ONEWEB-0521",
    "noradId": "54139",
    "line1": "1 54139U 22138AC  26166.41922633  .00000094  00000+0  20275-3 0  9990",
    "line2": "2 54139  87.9178 305.3066 0001970  92.4525 267.6834 13.19725473176531"
  },
  {
    "name": "ONEWEB-0522",
    "noradId": "54140",
    "line1": "1 54140U 22138AD  26166.39869588  .00000087  00000+0  18504-3 0  9992",
    "line2": "2 54140  87.9179 305.3130 0001708  98.2392 261.8934 13.19724994176579"
  },
  {
    "name": "ONEWEB-0523",
    "noradId": "54141",
    "line1": "1 54141U 22138AE  26166.36267145  .00000001  00000+0 -29287-4 0  9999",
    "line2": "2 54141  87.9197 274.8039 0002775  99.4560 260.6887 13.20771320179061"
  },
  {
    "name": "ONEWEB-0524",
    "noradId": "54142",
    "line1": "1 54142U 22138AF  26166.35257442  .00000050  00000+0  91435-4 0  9995",
    "line2": "2 54142  87.9195 274.8029 0002570 117.3231 242.8164 13.20770925179067"
  },
  {
    "name": "ONEWEB-0525",
    "noradId": "54143",
    "line1": "1 54143U 22138AG  26166.41764279  .00000075  00000+0  15614-3 0  9995",
    "line2": "2 54143  87.9176 305.3170 0001545 106.0162 254.1141 13.19725709176597"
  },
  {
    "name": "ONEWEB-0526",
    "noradId": "54144",
    "line1": "1 54144U 22138AH  26166.45081427 -.00000011  00000+0 -60483-4 0  9994",
    "line2": "2 54144  87.9176 305.3109 0001767 102.4956 257.6374 13.19725866176575"
  },
  {
    "name": "ONEWEB-0529",
    "noradId": "54145",
    "line1": "1 54145U 22138AJ  26166.37815617  .00000070  00000+0  14355-3 0  9991",
    "line2": "2 54145  87.9167 305.3346 0001631 102.0125 258.1191 13.19724869176589"
  },
  {
    "name": "ONEWEB-0531",
    "noradId": "54146",
    "line1": "1 54146U 22138AK  26166.33911519  .00000064  00000+0  12463-3 0  9997",
    "line2": "2 54146  87.9192 274.8035 0002820 105.2350 254.9095 13.20771614179064"
  }
]